NORAD_CAT_ID,OBJECT_NAME,OBJECT_TYPE,EPOCH,MEAN_MOTION,ECCENTRICITY,INCLINATION,RA_OF_ASC_NODE,ARG_OF_PERICENTER,MEAN_ANOMALY,BSTAR,MEAN_MOTION_DOT,MEAN_MOTION_DDOT,TLE_LINE0,TLE_LINE1,TLE_LINE2,SEMIMAJOR_AXIS,PERIOD,APOGEE,PERIGEE,DECAYED
52133.0,STARLINK-3707,PAYLOAD,2022-11-27 21:57:17,15.08824857,0.000206,53.2204,46.1443,35.9669,324.1462,-0.00016745,-2.951e-05,0.0,0 STARLINK-3707,1 52133U 22029AX  22331.91478787 -.00002951  00000-0 -16745-3 0  9996,2 52133  53.2204  46.1443 0002060  35.9669 324.1462 15.08824857 40116,6917.927,95.439,541.217,538.367,0.0
52133.0,STARLINK-3707,PAYLOAD,2022-11-28 05:54:13,15.08829225,0.0002043,53.2203,44.6576,32.0976,328.0141,-0.00011112,-2.056e-05,0.0,0 STARLINK-3707,1 52133U 22029AX  22332.24598521 -.00002056  00000-0 -11112-3 0  9991,2 52133  53.2203  44.6576 0002043  32.0976 328.0141 15.08829225 40161,6917.913000000001,95.438,541.192,538.365,0.0
52133.0,STARLINK-3707,PAYLOAD,2022-11-28 10:40:22,15.08833024,0.0002021,53.2208,43.7649,35.5066,324.6061,-7.776199999999999e-05,-1.525e-05,0.0,0 STARLINK-3707,1 52133U 22029AX  22332.44470268 -.00001525  00000-0 -77762-4 0  9994,2 52133  53.2208  43.7649 0002021  35.5066 324.6061 15.08833024 40199,6917.901999999999,95.438,541.165,538.369,0.0
52133.0,STARLINK-3707,PAYLOAD,2022-11-29 05:44:59,15.08837366,0.0002063,53.2207,40.1972,36.0715,324.0416,0.00011484,1.5399999999999998e-05,0.0,0 STARLINK-3707,1 52133U 22029AX  22333.23957433  .00001540  00000-0  11484-3 0  9999,2 52133  53.2207  40.1972 0002063  36.0715 324.0416 15.08837366 40316,6917.888000000001,95.438,541.181,538.326,0.0
52133.0,STARLINK-3707,PAYLOAD,2022-11-29 12:06:31,15.0884382,0.0002106,53.2208,39.0076,35.7878,324.3255,0.0001529,2.146e-05,0.0,0 STARLINK-3707,1 52133U 22029AX  22333.50452942  .00002146  00000-0  15290-3 0  9996,2 52133  53.2208  39.0076 0002106  35.7878 324.3255 15.08843820 40353,6917.869000000002,95.437,541.191,538.2769999999998,0.0
52133.0,STARLINK-3707,PAYLOAD,2022-11-30 05:35:47,15.08833154,0.0002726,53.2216,35.7417,34.1721,325.9446,5.4725e-05,5.82e-06,0.0,0 STARLINK-3707,1 52133U 22029AX  22334.23318405  .00000582  00000-0  54725-4 0  9991,2 52133  53.2216  35.7417 0002726  34.1721 325.9446 15.08833154 40462,6917.901,95.438,541.6519999999998,537.88,0.0
52133.0,STARLINK-3707,PAYLOAD,2022-11-30 10:21:56,15.08830518,0.000239,53.2208,34.8475,35.8215,324.2937,1.3319e-06,-2.67e-06,0.0,0 STARLINK-3707,1 52133U 22029AX  22334.43190735 -.00000267  00000-0  13319-5 0  9993,2 52133  53.2208  34.8475 0002390  35.8215 324.2937 15.08830518 40491,6917.909000000002,95.438,541.428,538.121,0.0
52133.0,STARLINK-3707,PAYLOAD,2022-11-30 21:29:37,15.08842981,0.000201,53.2204,32.7634,37.4565,322.6567,3.5421e-05,2.76e-06,0.0,0 STARLINK-3707,1 52133U 22029AX  22334.89557773  .00000276  00000-0  35421-4 0  9998,2 52133  53.2204  32.7634 0002010  37.4565 322.6567 15.08842981 40562,6917.871,95.437,541.127,538.346,0.0
52133.0,STARLINK-3707,PAYLOAD,2022-12-01 10:12:43,15.08842347,0.0002044,53.2207,30.3844,39.597,320.5171,-6.8854e-05,-1.384e-05,0.0,0 STARLINK-3707,1 52133U 22029AX  22335.42550145 -.00001384  00000-0 -68854-4 0  9993,2 52133  53.2207  30.3844 0002044  39.5970 320.5171 15.08842347 40645,6917.873000000001,95.437,541.1519999999998,538.3240000000002,0.0
52133.0,STARLINK-3707,PAYLOAD,2022-12-01 14:58:52,15.08845,0.0002306,53.2194,29.4945,35.8499,324.2647,-6.8767e-05,-1.383e-05,0.0,0 STARLINK-3707,1 52133U 22029AX  22335.62421899 -.00001383  00000-0 -68767-4 0  9990,2 52133  53.2194  29.4945 0002306  35.8499 324.2647 15.08845000 40678,6917.865,95.437,541.325,538.135,0.0
52133.0,STARLINK-3707,PAYLOAD,2022-12-02 10:03:29,15.08841181,0.000216,53.2201,25.9241,38.6924,321.4222,4.7412e-05,4.66e-06,0.0,0 STARLINK-3707,1 52133U 22029AX  22336.41909618  .00000466  00000-0  47412-4 0  9991,2 52133  53.2201  25.9241 0002160  38.6924 321.4222 15.08841181 40796,6917.877,95.437,541.236,538.248,0.0
52133.0,STARLINK-3707,PAYLOAD,2022-12-02 14:49:39,15.08835001,0.0002122,53.2197,25.0316,36.3555,323.7581,-1.3563e-05,-5.04e-06,0.0,0 STARLINK-3707,1 52133U 22029AX  22336.61782200 -.00000504  00000-0 -13563-4 0  9994,2 52133  53.2197  25.0316 0002122  36.3555 323.7581 15.08835001 40828,6917.896,95.438,541.229,538.293,0.0
52133.0,STARLINK-3707,PAYLOAD,2022-12-03 09:54:18,15.08813884,0.0002191,53.2204,21.4641,34.2135,325.8998,0.00014762,2.060000000000001e-05,0.0,0 STARLINK-3707,1 52133U 22029AX  22337.41271411  .00002060  00000-0  14762-3 0  9998,2 52133  53.2204  21.4641 0002191  34.2135 325.8998 15.08813884 40948,6917.96,95.439,541.341,538.309,0.0
52133.0,STARLINK-3707,PAYLOAD,2022-12-03 14:40:27,15.0883034,0.0002303,53.2204,20.5721,33.3033,326.8103,-7.7513e-05,-1.521e-05,0.0,0 STARLINK-3707,1 52133U 22029AX  22337.61143110 -.00001521  00000-0 -77513-4 0  9991,2 52133  53.2204  20.5721 0002303  33.3033 326.8103 15.08830340 40977,6917.91,95.438,541.368,538.182,0.0
52133.0,STARLINK-3707,PAYLOAD,2022-12-04 03:23:32,15.08836888,0.0002288,53.2202,18.1942,31.2733,328.8395,-1.9693e-05,-6.02e-06,0.0,0 STARLINK-3707,1 52133U 22029AX  22338.14134638 -.00000602  00000-0 -19693-4 0  9999,2 52133  53.2202  18.1942 0002288  31.2733 328.8395 15.08836888 41057,6917.89,95.438,541.3380000000002,538.172,0.0
52133.0,STARLINK-3707,PAYLOAD,2022-12-04 08:09:40,15.08850654,0.0001892,53.2205,17.3011,46.6541,313.4608,0.00015324,2.152e-05,0.0,0 STARLINK-3707,1 52133U 22029AX  22338.34005135  .00002152  00000-0  15324-3 0  9996,2 52133  53.2205  17.3011 0001892  46.6541 313.4608 15.08850654 41082,6917.848000000001,95.437,541.0219999999998,538.404,0.0
52133.0,STARLINK-3707,PAYLOAD,2022-12-04 12:55:51,15.08834878,0.0002474,53.2201,16.4101,34.2219,325.8932,-5.970299999999999e-06,-3.83e-06,0.0,0 STARLINK-3707,1 52133U 22029AX  22338.53878801 -.00000383  00000-0 -59703-5 0  9992,2 52133  53.2201  16.4101 0002474  34.2219 325.8932 15.08834878 41111,6917.896,95.438,541.4730000000002,538.05,0.0
52133.0,STARLINK-3707,PAYLOAD,2022-12-04 19:17:24,15.08830953,0.0002573,53.2202,15.2199,35.6443,324.4721,2.0263e-06,-2.56e-06,0.0,0 STARLINK-3707,1 52133U 22029AX  22338.80375197 -.00000256  00000-0  20263-5 0  9999,2 52133  53.2202  15.2199 0002573  35.6443 324.4721 15.08830953 41155,6917.908,95.438,541.553,537.993,0.0
52133.0,STARLINK-3707,PAYLOAD,2022-12-05 12:46:38,15.08832489,0.0002335,53.2197,11.9493,31.9538,328.1595,6.9549e-05,8.19e-06,0.0,0 STARLINK-3707,1 52133U 22029AX  22339.53238961  .00000819  00000-0  69549-4 0  9990,2 52133  53.2197  11.9493 0002335  31.9538 328.1595 15.08832489 41266,6917.903,95.438,541.384,538.153,0.0
52133.0,STARLINK-3707,PAYLOAD,2022-12-05 19:08:10,15.08836219,0.0002378,53.2193,10.76,33.4633,326.6509,9.6446e-05,1.247e-05,0.0,0 STARLINK-3707,1 52133U 22029AX  22339.79734706  .00001247  00000-0  96446-4 0  9998,2 52133  53.2193  10.7600 0002378  33.4633 326.6509 15.08836219 41307,6917.892,95.438,541.4019999999998,538.112,0.0
52133.0,STARLINK-3707,PAYLOAD,2022-12-06 01:29:43,15.08843104,0.0002368,53.2197,9.5699,32.9076,327.2063,7.2499e-05,8.66e-06,0.0,0 STARLINK-3707,1 52133U 22029AX  22340.06230333  .00000866  00000-0  72499-4 0  9995,2 52133  53.2197   9.5699 0002368  32.9076 327.2063 15.08843104 41346,6917.871,95.437,541.374,538.0980000000002,0.0
52133.0,STARLINK-3707,PAYLOAD,2022-12-06 06:15:51,15.0885063,0.0002381,53.219,8.6782,29.726,330.3867,9.7673e-05,1.267e-05,0.0,0 STARLINK-3707,1 52133U 22029AX  22340.26101696  .00001267  00000-0  97673-4 0  9993,2 52133  53.2190   8.6782 0002381  29.7260 330.3867 15.08850630 41378,6917.848000000001,95.437,541.36,538.066,0.0
52133.0,STARLINK-3707,PAYLOAD,2022-12-06 11:02:02,15.08838972,0.0002921999999999,53.2197,7.7864,30.2725,329.8436,7.127100000000003e-06,-1.75e-06,0.0,0 STARLINK-3707,1 52133U 22029AX  22340.45974801 -.00000175  00000-0  71271-5 0  9995,2 52133  53.2197   7.7864 0002922  30.2725 329.8436 15.08838972 41404,6917.884,95.438,541.77,537.727,0.0
52133.0,STARLINK-3707,PAYLOAD,2022-12-06 18:58:58,15.08829194,0.0002723999999999,53.2199,6.2993,39.8894,320.2298,-9.6664e-05,-1.826e-05,0.0,0 STARLINK-3707,1 52133U 22029AX  22340.79095880 -.00001826  00000-0 -96664-4 0  9990,2 52133  53.2199   6.2993 0002724  39.8894 320.2298 15.08829194 41457,6917.913000000001,95.438,541.663,537.894,0.0
52133.0,STARLINK-3707,PAYLOAD,2022-12-07 02:55:53,15.08835867,0.000234,53.2184,4.8124,31.7592,328.3540000000001,-4.3177e-05,-9.75e-06,0.0,0 STARLINK-3707,1 52133U 22029AX  22341.12215245 -.00000975  00000-0 -43177-4 0  9992,2 52133  53.2184   4.8124 0002340  31.7592 328.3540 15.08835867 41500,6917.893,95.438,541.377,538.139,0.0
52133.0,STARLINK-3707,PAYLOAD,2022-12-07 18:49:45,15.08832046,0.0002388,53.2188,1.8392,32.1505,327.9632,-5.2018e-05,-1.116e-05,0.0,0 STARLINK-3707,1 52133U 22029AX  22341.78455823 -.00001116  00000-0 -52018-4 0  9994,2 52133  53.2188   1.8392 0002388  32.1505 327.9632 15.08832046 41603,6917.905,95.438,541.422,538.118,0.0
52133.0,STARLINK-3707,PAYLOAD,2022-12-08 10:43:36,15.08846247,0.000289,53.2174,358.8673,24.1362,335.9765,8.0158e-05,9.88e-06,0.0,0 STARLINK-3707,1 52133U 22029AX  22342.44694476  .00000988  00000-0  80158-4 0  9997,2 52133  53.2174 358.8673 0002890  24.1362 335.9765 15.08846247 41700,6917.861,95.437,541.726,537.727,0.0
52133.0,STARLINK-3707,PAYLOAD,2022-12-09 12:09:47,15.08820599,0.0002868,53.2176,354.1096,16.1735,343.9349,-1.4025e-05,-5.12e-06,0.0,0 STARLINK-3707,1 52133U 22029AX  22343.50679602 -.00000512  00000-0 -14025-4 0  9994,2 52133  53.2176 354.1096 0002868  16.1735 343.9349 15.08820599 41866,6917.94,95.439,541.789,537.821,0.0
52133.0,STARLINK-3707,PAYLOAD,2022-12-10 07:14:24,15.08839865,0.0002818,53.2192,350.5453,26.9562,333.1576,-3.0361e-05,-7.72e-06,0.0,0 STARLINK-3707,1 52133U 22029AX  22344.30167145 -.00000772  00000-0 -30361-4 0  9996,2 52133  53.2192 350.5453 0002818  26.9562 333.1576 15.08839865 41985,6917.880999999999,95.438,541.695,537.7959999999998,0.0
